[
  {
    "name": "ONEWEB-0336",
    "noradId": "49202",
    "line1": "1 49202U 21083S   26176.40967656 -.00000103  00000+0 -31663-3 0  9993",
    "line2": "2 49202  87.8961 318.5901 0002038  91.0140 269.1223 13.13471755231999"
  },
  {
    "name": "ONEWEB-0337",
    "noradId": "49203",
    "line1": "1 49203U 21083T   26176.41968179 -.00000279  00000+0 -79880-3 0  9993",
    "line2": "2 49203  87.8961 318.5945 0002061  97.1356 263.0008 13.13470203231991"
  },
  {
    "name": "ONEWEB-0338",
    "noradId": "49204",
    "line1": "1 49204U 21083U   26176.52585025  .00000076  00000+0  15376-3 0  9994",
    "line2": "2 49204  87.9185 272.7864 0001843 106.5396 253.5940 13.20774177237910"
  },
  {
    "name": "ONEWEB-0339",
    "noradId": "49205",
    "line1": "1 49205U 21083V   26176.42827638 -.00000232  00000+0 -67063-3 0  9999",
    "line2": "2 49205  87.8964 318.5853 0001749 107.2129 252.9192 13.13470942231976"
  },
  {
    "name": "ONEWEB-0340",
    "noradId": "49206",
    "line1": "1 49206U 21083W   26176.47994394  .00000017  00000+0  98355-5 0  9998",
    "line2": "2 49206  87.9178 333.8056 0001965  91.2755 268.8603 13.18686200231061"
  },
  {
    "name": "ONEWEB-0341",
    "noradId": "49207",
    "line1": "1 49207U 21083X   26176.48668834 -.00000006  00000+0 -47448-4 0  9993",
    "line2": "2 49207  87.9168 333.8068 0002331  98.7042 261.4354 13.18685922231087"
  },
  {
    "name": "ONEWEB-0342",
    "noradId": "49208",
    "line1": "1 49208U 21083Y   26176.53260859  .00000126  00000+0  27711-3 0  9996",
    "line2": "2 49208  87.9195 272.7738 0002019 103.3908 256.7450 13.20772174237887"
  },
  {
    "name": "ONEWEB-0343",
    "noradId": "49209",
    "line1": "1 49209U 21083Z   26176.41924476  .00000030  00000+0  43841-4 0  9993",
    "line2": "2 49209  87.9169 333.8191 0001808 107.9129 252.2201 13.18686203231121"
  },
  {
    "name": "ONEWEB-0344",
    "noradId": "49210",
    "line1": "1 49210U 21083AA  26176.42319013 -.00000270  00000+0 -77567-3 0  9990",
    "line2": "2 49210  87.8952 318.5997 0002203 100.5026 259.6352 13.13468588231971"
  },
  {
    "name": "ONEWEB-0345",
    "noradId": "49211",
    "line1": "1 49211U 21083AB  26176.41473110 -.00000258  00000+0 -74026-3 0  9992",
    "line2": "2 49211  87.8969 318.5837 0002154 100.9797 259.1575 13.13468634231982"
  },
  {
    "name": "ONEWEB-0346",
    "noradId": "49212",
    "line1": "1 49212U 21083AC  26176.49174741  .00000035  00000+0  56444-4 0  9995",
    "line2": "2 49212  87.9167 333.8045 0002120  76.9514 283.1855 13.18686370231079"
  },
  {
    "name": "ONEWEB-0348",
    "noradId": "49213",
    "line1": "1 49213U 21083AD  26176.52250871  .00000122  00000+0  26813-3 0  9992",
    "line2": "2 49213  87.9198 272.7801 0002501  92.0195 268.1225 13.20771444237915"
  },
  {
    "name": "ONEWEB-0350",
    "noradId": "49214",
    "line1": "1 49214U 21083AE  26176.43336056  .00010324  00000+0  28226-1 0  9996",
    "line2": "2 49214  87.8962 318.5855 0001145 122.0627 238.0614 13.13417979232015"
  },
  {
    "name": "ONEWEB-0351",
    "noradId": "49215",
    "line1": "1 49215U 21083AF  26176.51563192  .00000080  00000+0  16456-3 0  9991",
    "line2": "2 49215  87.9198 272.7801 0002399 120.8977 239.2393 13.20771169237874"
  },
  {
    "name": "ONEWEB-0352",
    "noradId": "49216",
    "line1": "1 49216U 21083AG  26176.40457997  .00000063  00000+0  13806-3 0  9992",
    "line2": "2 49216  87.8961 318.5962 0001860 111.5056 248.6272 13.13470730232109"
  },
  {
    "name": "ONEWEB-0354",
    "noradId": "49217",
    "line1": "1 49217U 21083AH  26176.54269552  .00000142  00000+0  31718-3 0  9996",
    "line2": "2 49217  87.9198 272.7735 0002426  96.0504 264.0906 13.20773949237912"
  },
  {
    "name": "ONEWEB-0355",
    "noradId": "49218",
    "line1": "1 49218U 21083AJ  26176.43350269 -.00000193  00000+0 -56254-3 0  9991",
    "line2": "2 49218  87.8959 318.5917 0001982 103.9375 256.1975 13.13470327231983"
  },
  {
    "name": "ONEWEB-0357",
    "noradId": "49219",
    "line1": "1 49219U 21083AK  26176.53933179  .00000003  00000+0 -23550-4 0  9993",
    "line2": "2 49219  87.9197 272.7681 0002063 105.9070 254.2291 13.20772813237915"
  },
  {
    "name": "ONEWEB-0332",
    "noradId": "49279",
    "line1": "1 49279U 21090A   26176.36323825  .00000084  00000+0  19123-3 0  9997",
    "line2": "2 49279  87.8967 288.0796 0001764 104.3244 255.8082 13.14502200228655"
  },
  {
    "name": "ONEWEB-0347",
    "noradId": "49280",
    "line1": "1 49280U 21090B   26176.52924140  .00000118  00000+0  25756-3 0  9991",
    "line2": "2 49280  87.9196 272.7784 0001762 103.1697 256.9633 13.20772412232140"
  },
  {
    "name": "ONEWEB-0349",
    "noradId": "49281",
    "line1": "1 49281U 21090C   26176.56122057 -.00000018  00000+0 -74990-4 0  9999",
    "line2": "2 49281  87.9199 272.7725 0002101 100.6012 259.5359 13.20772833230936"
  },
  {
    "name": "ONEWEB-0353",
    "noradId": "49282",
    "line1": "1 49282U 21090D   26176.58366165  .00000037  00000+0  64933-4 0  9997",
    "line2": "2 49282  87.8970 288.0314 0001716 103.8826 256.2495 13.14504247228685"
  },
  {
    "name": "ONEWEB-0356",
    "noradId": "49283",
    "line1": "1 49283U 21090E   26176.55952039 -.00000009  00000+0 -53789-4 0  9994",
    "line2": "2 49283  87.9196 272.7662 0001801  76.7319 283.4015 13.20774073230937"
  },
  {
    "name": "ONEWEB-0358",
    "noradId": "49284",
    "line1": "1 49284U 21090F   26176.51976330  .00027532  00000+0  67792-1 0  9995",
    "line2": "2 49284  87.9122 272.7793 0001764  98.0942 262.0391 13.20459075231651"
  },
  {
    "name": "ONEWEB-0359",
    "noradId": "49285",
    "line1": "1 49285U 21090G   26176.51070357  .00000055  00000+0  10323-3 0  9991",
    "line2": "2 49285  87.9198 272.7761 0002306  96.2160 263.9236 13.20773776231638"
  },
  {
    "name": "ONEWEB-0360",
    "noradId": "49286",
    "line1": "1 49286U 21090H   26176.50061259 -.00000057  00000+0 -17189-3 0  9993",
    "line2": "2 49286  87.9200 272.7845 0002080 101.0416 259.0951 13.20770053230942"
  },
  {
    "name": "ONEWEB-0361",
    "noradId": "49287",
    "line1": "1 49287U 21090J   26176.55785600 -.00000048  00000+0 -14900-3 0  9990",
    "line2": "2 49287  87.9196 272.7710 0002132  96.9860 263.1516 13.20771107231407"
  },
  {
    "name": "ONEWEB-0362",
    "noradId": "49288",
    "line1": "1 49288U 21090K   26176.36544519  .00000057  00000+0  11093-3 0  9990",
    "line2": "2 49288  87.9179 303.3486 0002077 106.7790 253.3570 13.19725236227990"
  },
  {
    "name": "ONEWEB-0363",
    "noradId": "49289",
    "line1": "1 49289U 21090L   26176.26998041  .00000015  00000+0  45297-5 0  9992",
    "line2": "2 49289  87.9196 272.8286 0001965  91.0605 269.0754 13.20771004231375"
  },
  {
    "name": "ONEWEB-0364",
    "noradId": "49290",
    "line1": "1 49290U 21090M   26176.53597006  .00000074  00000+0  14986-3 0  9994",
    "line2": "2 49290  87.9196 272.7838 0002081 100.8161 259.3207 13.20771664232542"
  }
]