OBJECT_NAME,OBJECT_ID,EPOCH,MEAN_MOTION,ECCENTRICITY,INCLINATION,RA_OF_ASC_NODE,ARG_OF_PERICENTER,MEAN_ANOMALY,EPHEMERIS_TYPE,CLASSIFICATION_TYPE,NORAD_CAT_ID,ELEMENT_SET_NO,REV_AT_EPOCH,BSTAR,MEAN_MOTION_DOT,MEAN_MOTION_DDOT
ONEWEB-0336,2021-083S,2026-06-25T09:49:56.054784,13.13471755,.00020383,87.8961,318.5901,91.0140,269.1223,0,U,49202,999,23199,-.31663402E-3,-.103E-5,0
ONEWEB-0337,2021-083T,2026-06-25T10:04:20.506656,13.13470203,.00020612,87.8961,318.5945,97.1356,263.0008,0,U,49203,999,23199,-.798804E-3,-.279E-5,0
ONEWEB-0338,2021-083U,2026-06-25T12:37:13.461600,13.20774177,.00018437,87.9185,272.7864,106.5396,253.5940,0,U,49204,999,23791,.15375602E-3,.76E-6,0
ONEWEB-0339,2021-083V,2026-06-25T10:16:43.079232,13.13470942,.00017493,87.8964,318.5853,107.2129,252.9192,0,U,49205,999,23197,-.67063149E-3,-.232E-5,0
ONEWEB-0340,2021-083W,2026-06-25T11:31:07.156416,13.18686200,.00019651,87.9178,333.8056,91.2755,268.8603,0,U,49206,999,23106,.9835535E-5,.17E-6,0
ONEWEB-0341,2021-083X,2026-06-25T11:40:49.872576,13.18685922,.00023316,87.9168,333.8068,98.7042,261.4354,0,U,49207,999,23108,-.47447895E-4,-.6E-7,0
ONEWEB-0342,2021-083Y,2026-06-25T12:46:57.382176,13.20772174,.00020195,87.9195,272.7738,103.3908,256.7450,0,U,49208,999,23788,.27710908E-3,.126E-5,0
ONEWEB-0343,2021-083Z,2026-06-25T10:03:42.747264,13.18686203,.00018082,87.9169,333.8191,107.9129,252.2201,0,U,49209,999,23112,.43841468E-4,.3E-6,0
ONEWEB-0344,2021-083AA,2026-06-25T10:09:23.627232,13.13468588,.00022034,87.8952,318.5997,100.5026,259.6352,0,U,49210,999,23197,-.77566543E-3,-.27E-5,0
ONEWEB-0345,2021-083AB,2026-06-25T09:57:12.767040,13.13468634,.00021545,87.8969,318.5837,100.9797,259.1575,0,U,49211,999,23198,-.74026391E-3,-.258E-5,0
ONEWEB-0346,2021-083AC,2026-06-25T11:48:06.976224,13.18686370,.00021204,87.9167,333.8045,76.9514,283.1855,0,U,49212,999,23107,.56443645E-4,.35E-6,0
ONEWEB-0348,2021-083AD,2026-06-25T12:32:24.752544,13.20771444,.00025014,87.9198,272.7801,92.0195,268.1225,0,U,49213,999,23791,.26813413E-3,.122E-5,0
ONEWEB-0350,2021-083AE,2026-06-25T10:24:02.352384,13.13417979,.00011457,87.8962,318.5855,122.0627,238.0614,0,U,49214,999,23201,.28225623E-1,.10324E-3,0
ONEWEB-0351,2021-083AF,2026-06-25T12:22:30.597888,13.20771169,.00023998,87.9198,272.7801,120.8977,239.2393,0,U,49215,999,23787,.16456195E-3,.8E-6,0
ONEWEB-0352,2021-083AG,2026-06-25T09:42:35.709408,13.13470730,.00018605,87.8961,318.5962,111.5056,248.6272,0,U,49216,999,23210,.13805846E-3,.63E-6,0
ONEWEB-0354,2021-083AH,2026-06-25T13:01:28.892928,13.20773949,.00024262,87.9198,272.7735,96.0504,264.0906,0,U,49217,999,23791,.31717531E-3,.142E-5,0
ONEWEB-0355,2021-083AJ,2026-06-25T10:24:14.632416,13.13470327,.00019825,87.8959,318.5917,103.9375,256.1975,0,U,49218,999,23198,-.56253863E-3,-.193E-5,0
ONEWEB-0357,2021-083AK,2026-06-25T12:56:38.266656,13.20772813,.0002063,87.9197,272.7681,105.9070,254.2291,0,U,49219,999,23791,-.23550398E-4,.3E-7,0
ONEWEB-0332,2021-090A,2026-06-25T08:43:03.784800,13.14502200,.00017641,87.8967,288.0796,104.3244,255.8082,0,U,49279,999,22865,.1912308E-3,.84E-6,0
ONEWEB-0347,2021-090B,2026-06-25T12:42:06.456960,13.20772412,.00017627,87.9196,272.7784,103.1697,256.9633,0,U,49280,999,23214,.25756338E-3,.118E-5,0
ONEWEB-0349,2021-090C,2026-06-25T13:28:09.457248,13.20772833,.0002101,87.9199,272.7725,100.6012,259.5359,0,U,49281,999,23093,-.74990044E-4,-.18E-6,0
ONEWEB-0353,2021-090D,2026-06-25T14:00:28.366560,13.14504247,.00017165,87.8970,288.0314,103.8826,256.2495,0,U,49282,999,22868,.64933156E-4,.37E-6,0
ONEWEB-0356,2021-090E,2026-06-25T13:25:42.561696,13.20774073,.00018019,87.9196,272.7662,76.7319,283.4015,0,U,49283,999,23093,-.53788872E-4,-.9E-7,0
ONEWEB-0358,2021-090F,2026-06-25T12:28:27.549120,13.20459075,.00017644,87.9122,272.7793,98.0942,262.0391,0,U,49284,999,23165,.67791541E-1,.27532E-3,0
ONEWEB-0359,2021-090G,2026-06-25T12:15:24.788448,13.20773776,.00023063,87.9198,272.7761,96.2160,263.9236,0,U,49285,999,23163,.10323489E-3,.55E-6,0
ONEWEB-0360,2021-090H,2026-06-25T12:00:52.927776,13.20770053,.00020802,87.9200,272.7845,101.0416,259.0951,0,U,49286,999,23094,-.17188612E-3,-.57E-6,0
ONEWEB-0361,2021-090J,2026-06-25T13:23:18.758400,13.20771107,.0002132,87.9196,272.7710,96.9860,263.1516,0,U,49287,999,23140,-.14900297E-3,-.48E-6,0
ONEWEB-0362,2021-090K,2026-06-25T08:46:14.464416,13.19725236,.0002077,87.9179,303.3486,106.7790,253.3570,0,U,49288,999,22799,.11092613E-3,.57E-6,0
ONEWEB-0363,2021-090L,2026-06-25T06:28:46.307424,13.20771004,.00019655,87.9196,272.8286,91.0605,269.0754,0,U,49289,999,23137,.4529716E-5,.15E-6,0
ONEWEB-0364,2021-090M,2026-06-25T12:51:47.813184,13.20771664,.00020819,87.9196,272.7838,100.8161,259.3207,0,U,49290,999,23254,.1498593E-3,.74E-6,0
